{
  "type": "FeatureCollection",
  "features": [
    {
      "type": "Feature",
      "properties": {
        "norad_id": 66625,
        "name": "STARLINK-35929",
        "group": "last-30-days",
        "lat": 22.710287412689585,
        "lon": 173.80540990718325,
        "alt_km": 436.18755231461,
        "timestamp": "2025-12-19T08:58:48.082645+00:00",
        "meta_object_name": "STARLINK-35929",
        "meta_object_id": "2025-271J",
        "meta_epoch": "2025-12-19T00:00:02.000160",
        "meta_mean_motion": 15.43991768,
        "meta_eccentricity": 0.00011326,
        "meta_inclination": 53.1592,
        "meta_ra_of_asc_node": 157.2911,
        "meta_arg_of_pericenter": 57.7984,
        "meta_mean_anomaly": 51.4478,
        "meta_ephemeris_type": 0,
        "meta_classification_type": "U",
        "meta_norad_cat_id": 66625,
        "meta_element_set_no": 999,
        "meta_rev_at_epoch": 524,
        "meta_bstar": -0.048665079,
        "meta_mean_motion_dot": -0.02007706,
        "meta_mean_motion_ddot": 0,
        "tle_line1": "1 66625U 25271J   25353.00002315 -.02007706  00000+0 -48665-1 0  9994",
        "tle_line2": "2 66625  53.1592 157.2911 0001132  57.7984  51.4478 15.43991768  5248"
      },
      "geometry": {
        "type": "Point",
        "coordinates": [
          173.80540990718325,
          22.710287412689585
        ]
      }
    },
    {
      "type": "Feature",
      "properties": {
        "norad_id": 66626,
        "name": "STARLINK-35902",
        "group": "last-30-days",
        "lat": -34.8386549980295,
        "lon": 124.21215883172782,
        "alt_km": 451.83302940987505,
        "timestamp": "2025-12-19T08:58:48.082656+00:00",
        "meta_object_name": "STARLINK-35902",
        "meta_object_id": "2025-271K",
        "meta_epoch": "2025-12-19T00:00:02.000160",
        "meta_mean_motion": 15.39602993,
        "meta_eccentricity": 0.00014663,
        "meta_inclination": 53.16,
        "meta_ra_of_asc_node": 157.4298,
        "meta_arg_of_pericenter": 73.237,
        "meta_mean_anomaly": 326.384,
        "meta_ephemeris_type": 0,
        "meta_classification_type": "U",
        "meta_norad_cat_id": 66626,
        "meta_element_set_no": 999,
        "meta_rev_at_epoch": 524,
        "meta_bstar": 0.0007997499,
        "meta_mean_motion_dot": 0.00031705,
        "meta_mean_motion_ddot": 0,
        "tle_line1": "1 66626U 25271K   25353.00002315  .00031705  00000+0  79975-3 0  9997",
        "tle_line2": "2 66626  53.1600 157.4298 0001466  73.2370 326.3840 15.39602993  5242"
      },
      "geometry": {
        "type": "Point",
        "coordinates": [
          124.21215883172782,
          -34.8386549980295
        ]
      }
    },
    {
      "type": "Feature",
      "properties": {
        "norad_id": 66627,
        "name": "STARLINK-35904",
        "group": "last-30-days",
        "lat": 4.739199937320595,
        "lon": 159.1269777524571,
        "alt_km": 447.38352865680463,
        "timestamp": "2025-12-19T08:58:48.082666+00:00",
        "meta_object_name": "STARLINK-35904",
        "meta_object_id": "2025-271L",
        "meta_epoch": "2025-12-19T00:00:02.000160",
        "meta_mean_motion": 15.39586788,
        "meta_eccentricity": 9.712e-05,
        "meta_inclination": 53.1589,
        "meta_ra_of_asc_node": 157.3268,
        "meta_arg_of_pericenter": 83.1938,
        "meta_mean_anomaly": 7.9558,
        "meta_ephemeris_type": 0,
        "meta_classification_type": "U",
        "meta_norad_cat_id": 66627,
        "meta_element_set_no": 999,
        "meta_rev_at_epoch": 508,
        "meta_bstar": 0.00085532392,
        "meta_mean_motion_dot": 0.00033927,
        "meta_mean_motion_ddot": 0,
        "tle_line1": "1 66627U 25271L   25353.00002315  .00033927  00000+0  85532-3 0  9992",
        "tle_line2": "2 66627  53.1589 157.3268 0000971  83.1938   7.9558 15.39586788  5088"
      },
      "geometry": {
        "type": "Point",
        "coordinates": [
          159.1269777524571,
          4.739199937320595
        ]
      }
    },
    {
      "type": "Feature",
      "properties": {
        "norad_id": 66628,
        "name": "STARLINK-35862",
        "group": "last-30-days",
        "lat": 40.53461286701508,
        "lon": -164.6583597796076,
        "alt_km": 412.48502991428813,
        "timestamp": "2025-12-19T08:58:48.082676+00:00",
        "meta_object_name": "STARLINK-35862",
        "meta_object_id": "2025-271M",
        "meta_epoch": "2025-12-18T21:54:35.856864",
        "meta_mean_motion": 15.49385884,
        "meta_eccentricity": 9.597e-05,
        "meta_inclination": 53.1591,
        "meta_ra_of_asc_node": 157.6722,
        "meta_arg_of_pericenter": 75.8715,
        "meta_mean_anomaly": 284.24,
        "meta_ephemeris_type": 0,
        "meta_classification_type": "U",
        "meta_norad_cat_id": 66628,
        "meta_element_set_no": 999,
        "meta_rev_at_epoch": 516,
        "meta_bstar": 0.00078885762,
        "meta_mean_motion_dot": 0.0004379,
        "meta_mean_motion_ddot": 0,
        "tle_line1": "1 66628U 25271M   25352.91291501  .00043790  00000+0  78886-3 0  9992",
        "tle_line2": "2 66628  53.1591 157.6722 0000959  75.8715 284.2400 15.49385884  5167"
      },
      "geometry": {
        "type": "Point",
        "coordinates": [
          -164.6583597796076,
          40.53461286701508
        ]
      }
    },
    {
      "type": "Feature",
      "properties": {
        "norad_id": 66629,
        "name": "STARLINK-35956",
        "group": "last-30-days",
        "lat": 42.08657619668435,
        "lon": -161.91906876207204,
        "alt_km": 412.3207838710705,
        "timestamp": "2025-12-19T08:58:48.082687+00:00",
        "meta_object_name": "STARLINK-35956",
        "meta_object_id": "2025-271N",
        "meta_epoch": "2025-12-18T16:00:00.999936",
        "meta_mean_motion": 15.49463337,
        "meta_eccentricity": 5.424e-05,
        "meta_inclination": 53.1591,
        "meta_ra_of_asc_node": 158.846,
        "meta_arg_of_pericenter": 63.7637,
        "meta_mean_anomaly": 4.4961,
        "meta_ephemeris_type": 0,
        "meta_classification_type": "U",
        "meta_norad_cat_id": 66629,
        "meta_element_set_no": 999,
        "meta_rev_at_epoch": 519,
        "meta_bstar": 0.0002238515,
        "meta_mean_motion_dot": 0.00012088,
        "meta_mean_motion_ddot": 0,
        "tle_line1": "1 66629U 25271N   25352.66667824  .00012088  00000+0  22385-3 0  9999",
        "tle_line2": "2 66629  53.1591 158.8460 0000542  63.7637   4.4961 15.49463337  5194"
      },
      "geometry": {
        "type": "Point",
        "coordinates": [
          -161.91906876207204,
          42.08657619668435
        ]
      }
    },
    {
      "type": "Feature",
      "properties": {
        "norad_id": 66630,
        "name": "STARLINK-35949",
        "group": "last-30-days",
        "lat": 42.795567645801526,
        "lon": -160.58280599989604,
        "alt_km": 413.16798603721054,
        "timestamp": "2025-12-19T08:58:48.082700+00:00",
        "meta_object_name": "STARLINK-35949",
        "meta_object_id": "2025-271P",
        "meta_epoch": "2025-12-18T21:53:34.855872",
        "meta_mean_motion": 15.49304641,
        "meta_eccentricity": 0.00011324,
        "meta_inclination": 53.1594,
        "meta_ra_of_asc_node": 157.6667,
        "meta_arg_of_pericenter": 161.2087,
        "meta_mean_anomaly": 198.8964,
        "meta_ephemeris_type": 0,
        "meta_classification_type": "U",
        "meta_norad_cat_id": 66630,
        "meta_element_set_no": 999,
        "meta_rev_at_epoch": 516,
        "meta_bstar": 0.00081306831,
        "meta_mean_motion_dot": 0.00045025,
        "meta_mean_motion_ddot": 0,
        "tle_line1": "1 66630U 25271P   25352.91220898  .00045025  00000+0  81307-3 0  9991",
        "tle_line2": "2 66630  53.1594 157.6667 0001132 161.2087 198.8964 15.49304641  5164"
      },
      "geometry": {
        "type": "Point",
        "coordinates": [
          -160.58280599989604,
          42.795567645801526
        ]
      }
    },
    {
      "type": "Feature",
      "properties": {
        "norad_id": 66631,
        "name": "STARLINK-35965",
        "group": "last-30-days",
        "lat": 49.75994816424159,
        "lon": -142.20293433800688,
        "alt_km": 398.2850040399844,
        "timestamp": "2025-12-19T08:58:48.082710+00:00",
        "meta_object_name": "STARLINK-35965",
        "meta_object_id": "2025-271Q",
        "meta_epoch": "2025-12-18T18:46:35.812416",
        "meta_mean_motion": 15.52675817,
        "meta_eccentricity": 0.00055207,
        "meta_inclination": 53.1593,
        "meta_ra_of_asc_node": 158.2793,
        "meta_arg_of_pericenter": 271.5583,
        "meta_mean_anomaly": 88.4795,
        "meta_ephemeris_type": 0,
        "meta_classification_type": "U",
        "meta_norad_cat_id": 66631,
        "meta_element_set_no": 999,
        "meta_rev_at_epoch": 514,
        "meta_bstar": 0.03250609,
        "meta_mean_motion_dot": 0.02273794,
        "meta_mean_motion_ddot": 0,
        "tle_line1": "1 66631U 25271Q   25352.78235894  .02273794  00000+0  32506-1 0  9992",
        "tle_line2": "2 66631  53.1593 158.2793 0005520 271.5583  88.4795 15.52675817  5146"
      },
      "geometry": {
        "type": "Point",
        "coordinates": [
          -142.20293433800688,
          49.75994816424159
        ]
      }
    }
  ]
}